GLOBALSTAR M067 [+]     
1 32263U 07048A   23229.29633635 -.00000121  00000+0 -17165-3 0  9998
2 32263  51.9703 196.0095 0001043 354.9282 146.9851 12.40629879726573
GLOBALSTAR M070 [+]     
1 32264U 07048B   23228.45857991 -.00000102  00000+0  85067-5 0  9995
2 32264  51.9767  11.7370 0001210  88.4813 311.7485 12.62276426729947
GLOBALSTAR M066 [+]     
1 32265U 07048C   23229.28063985 -.00000110  00000+0 -32156-4 0  9990
2 32265  51.9648 231.3247 0001003 244.2937 128.7995 12.62262582732278
GLOBALSTAR M068 [-]     
1 32266U 07048D   23229.39424906 -.00000091  00000+0  73353-4 0  9998
2 32266  51.9868 183.8989 0000932  83.9006  59.4868 12.62764400733223
GLOBALSTAR M079 [+]     
1 37188U 10054A   23229.66569922 -.00000101  00000+0  15277-4 0  9998
2 37188  52.0059  17.9177 0000634  93.9774 279.2788 12.62266864592589
GLOBALSTAR M074 [+]     
1 37189U 10054B   23228.74205821 -.00000106  00000+0 -11899-4 0  9994
2 37189  52.0029  20.1559 0000854  89.2947 284.6355 12.62268864592460
GLOBALSTAR M076 [+]     
1 37190U 10054C   23229.19877693 -.00000098  00000+0  29944-4 0  9997
2 37190  52.0044  18.8729 0000637  53.2098 118.8342 12.62277118592522
GLOBALSTAR M077 [+]     
1 37191U 10054D   23229.31355389 -.00000080  00000+0  13525-3 0  9993
2 37191  52.0089 335.1914 0000719 100.9146 291.1838 12.62269946593287
